#cP2010  1 13  0  0  0.00000000      96 ORBIT IGS05 HLM  IGS
## 1566 259200.00000000   900.00000000 55209 0.0000000000000
+   32   G01G02G03G04G05G06G07G08G09G10G11G12G13G14G15G16G17
+        G18G19G20G21G22G23G24G25G26G27G28G29G30G31G32  0  0
+          0  0  0  0  0  0  0  0  0  0  0  0  0  0  0  0  0
+          0  0  0  0  0  0  0  0  0  0  0  0  0  0  0  0  0
+          0  0  0  0  0  0  0  0  0  0  0  0  0  0  0  0  0
++         3  2  2  2  2  2  2  2  2  2  2  2  2  2  2  2  2
++         2  2  2  2  2  2  0  3  2  2  2  3  3  2  2  0  0
++         0  0  0  0  0  0  0  0  0  0  0  0  0  0  0  0  0
++         0  0  0  0  0  0  0  0  0  0  0  0  0  0  0  0  0
++         0  0  0  0  0  0  0  0  0  0  0  0  0  0  0  0  0
%c G  cc GPS ccc cccc cccc cccc cccc ccccc ccccc ccccc ccccc
%c cc cc ccc ccc cccc cccc cccc cccc ccccc ccccc ccccc ccccc
%f  1.2500000  1.025000000  0.00000000000  0.000000000000000
%f  0.0000000  0.000000000  0.00000000000  0.000000000000000
%i    0    0    0    0      0      0      0      0         0
%i    0    0    0    0      0      0      0      0         0
/* FINAL ORBIT COMBINATION FROM WEIGHTED AVERAGE OF:        
/* cod emr esa gfz grg jpl mit ngs sio                      
/* REFERENCED TO IGS TIME (IGST) AND TO WEIGHTED MEAN POLE: 
/* PCV:IGS05_1567 OL/AL:FES2004  NONE     Y  ORB:CMB CLK:CMB
*  2010  1 13 13 30  0.00000000
PG01 -19735.330848  17400.771828   3062.923456 999999.999999
PG02 -13790.429547 -20681.174756 -10011.901117    215.016371  5  5  5 111       
PG03  22282.569632  10802.908319 -10408.698086    501.407249  5  6  3 108       
PG04  -5813.159523 -25638.779154   1737.025180   -455.490844  5  5  6 159       
PG05 -13365.357219  -7898.513650 -21575.623796    -17.145244  5  4  5 150       
PG06  19427.863477  13219.119175 -12307.201250    260.306872  4  6  3 118       
PG07   9222.672617 -15832.543140 -19178.562612      4.416835  9  6  6 167       
PG08   1903.482162 -24084.102143 -10424.367101      2.096236  6  6  6 141       
PG09 -15693.024609  -4276.159186  20348.139664     99.764245  4  4  3 136       
PG10  -8819.673164 -12812.498376 -21675.218858    -32.717661  7  4  7 147       
PG11  17532.682364  -1367.482324  19721.339926    -39.508896     6  5 102       
PG12 -21130.250759   7501.975490  14188.860900   -163.629949  7  4  7 173       
PG13  16648.125992  -7804.813666 -19298.432804    306.677661  8  4  5 172       
PG14   1247.904582  15386.648563  21769.445139     -0.440535  5  3  3 146       
PG15 -25582.778882  -7182.424024  -1536.593045   -313.620126  7  6  5 167       
PG16   7101.318262  13666.417311 -21561.028282    -30.083042  6  5  5 105       
PG17  -2801.589047 -16079.479246  21072.522457    120.773136  4  2  4 159       
PG18 -17019.311597  19904.073319   3234.623376     41.604778  8  7  6 165       
PG19  25425.683105   8196.767930    500.702119     -9.358842 10  8  7 169       
PG20  21276.650672 -11686.897165  10578.031612     63.439383  9  6  6 173       
PG21  -6874.183076  19695.376112 -15772.913381    -33.736494  5  7  7 158       
PG22  -7726.881689  21459.362724  13707.808947    181.637409  5  3  5 158       
PG23  24460.043178  -1179.365378 -10683.054161    382.439237  8  6  6 153       
PG24 -14444.950861   5756.659718 -21443.337524 999999.999999
PG25  11750.626637  -9973.685803 -21310.222679     78.314812 10  4  6 156       
PG26  -9514.404725  11649.655449  21409.356177     -9.329037  3  5  2 138       
PG27 -16743.600565  -6849.302398  20175.005739    116.800065  6  4  6 132       
PG28   9975.792998 -21356.542055  12386.333673    -23.660041  7  5  4 153       
PG29 -20003.316925   6117.711833 -16251.758067     89.698662  8  9  4 135       
PG30 -19772.760486  16861.119469   4954.019768    210.262238  8  8  7  56       
PG31   7144.567309  25489.357327     14.037029    -55.511210  5  5  3 148       
PG32  20290.547395  -1605.810221  17253.007486    117.817517  4  5  5 150       
*  2010  1 13 13 45  0.00000000
PG01 -19571.092989  16843.302540   5869.704258 999999.999999
PG02 -13860.078152 -21695.050194  -7464.632645    215.020166  5  4  4 101       
PG03  20990.624270  10941.109041 -12735.304891    501.412046  4  6  3  93       
PG04  -5370.409768 -25377.132884   4539.211547   -455.508077  6  5  6 161       
PG05 -11712.769770  -9742.705815 -21773.770881    -17.141909  5  4  6 154       
PG06  17846.166653  13210.115024 -14478.068154    260.304725  3  6  3 113       
PG07  10003.123029 -13703.570179 -20402.200298      4.416597  9  7  5 170       
PG08   2395.166619 -22818.336358 -12926.110612      2.096687  6  6  6 139       
PG09 -16397.318450  -6562.193082  19191.883781     99.766083  4  5  4 139       
PG10  -7103.664454 -14522.826724 -21187.090648    -32.718036  7  5  7 128       
PG11  18570.885249    663.405524  18831.388531    -39.510913     6  5  81       
PG12 -20075.135304   6112.870349  16257.425188   -163.625589  7  4  7 141       
PG13  18626.971322  -7145.242046 -17666.750772    306.677532  8  4  5 174       
PG14  -1151.133086  14770.185491  22189.781539     -0.436425  5  3  3 151       
PG15 -25198.728417  -7371.567566  -4348.482133   -313.618090  6  6  5 158       
PG16   5365.019978  15381.419240 -20876.283456    -30.086553  6  5  6  83       
PG17   -436.122545 -15551.030127  21626.961439    120.776669  4  3  5 156       
PG18 -17394.821366  19799.200729    410.789224     41.607137  8  7  6 159       
PG19  25252.797931   8397.784458  -2329.479414     -9.360750 10  9  6 169       
PG20  20588.631219 -10472.091009  12927.398708     63.438884  8  6  6 167       
PG21  -7683.471896  17864.933826 -17510.876318    -33.738506  6  7  7 162       
PG22  -8906.148708  22298.200704  11431.669622    181.636316  6  4  4 155       
PG23  25454.246353   -761.384484  -8104.077456    382.438251  8  7  6 159       
PG24 -15071.810932   3354.384256 -21499.934350 999999.999999
PG25  12755.351078  -7652.950170 -21666.144033     78.322569 10  4  6 155       
PG26 -11914.333421  10929.707868  20633.689979     -9.331673  3  5  2 136       
PG27 -17405.984123  -8831.827853  18751.191628    116.804647  6  5  6 137       
PG28  10978.799126 -22084.118399   9895.013125    -23.659324  7  6  4 158       
PG29 -21665.016662   5508.806672 -14220.301221     89.701209  8  9  4 139       
PG30 -19486.804773  16097.040066   7676.535468    210.266239  8  8  7 111       
PG31   6886.474033  25420.438833   2901.523934    -55.509774  5  5  3 145       
PG32  18913.741980   -129.598811  18878.271020    117.810318  5  5  5 150       
*  2010  1 13 14  0  0.00000000
PG01 -19240.619232  16032.887948   8574.533010 999999.999999
PG02 -13872.121783 -22433.158405  -4792.361152    215.024125  5  3  5 109       
PG03  19461.479347  11129.891104 -14850.443019    501.415553  4  6  4  91       
PG04  -4803.470861 -24842.329668   7261.227843   -455.525557  6  6  6 165       
PG05 -10157.130590 -11672.090749 -21597.872241    -17.138211  6  4  5 152       
PG06  16034.063527  13251.989504 -16398.256255    260.302350  3  7  4 103       
PG07  10937.914328 -11509.513045 -21273.777419      4.415939  9  8  6 177       
PG08   3036.382800 -21321.820687 -15199.661507      2.096070  5  5  6 137       
PG09 -17162.024850  -8660.570838  17686.917307     99.768490  4  5  4 141       
PG10  -5523.979609 -16264.559209 -20338.103048    -32.719580  7  5  8 121       
PG11  19622.618933   2548.259612  17613.556589    -39.512859     6  5 107       
PG12 -18957.118772   4501.735454  18045.774084   -163.621035  7  5  7 135       
PG13  20444.474448  -6644.033280 -15734.057291    306.677431  8  5  5 175       
PG14  -3607.933307  14285.388959  22233.457701     -0.432246  5  3  3 158       
PG15 -24514.655679  -7536.333941  -7085.960642   -313.616328  6  6  5 149       
PG16   3785.078798  17113.135769 -19829.062644    -30.090002  5  5  7  91       
PG17   1996.685304 -15139.363963  21812.643348    120.779445  3  4  4 152       
PG18 -17567.224665  19466.446313  -2420.250124     41.609777  7  7  7 158       
PG19  24783.073563   8534.923892  -5120.250532     -9.362530 10  9  6 180       
PG20  19805.858390  -9023.393268  15052.007731     63.438174  7  6  6 154       
PG21  -8636.531895  15905.383536 -18933.844334    -33.740889  6  7  8 164       
PG22  -9870.162062  22991.038915   8959.537939    181.635424  6  4  5 160       
PG23  26175.493565   -446.543560  -5388.161278    382.437498  8  7  6 162       
PG24 -15813.941231    998.154219 -21182.804154 999999.999999
PG25  13890.727758  -5369.735100 -21637.295007     78.330135 10  4  6 179       
PG26 -14236.111104  10371.240193  19488.742785     -9.334652  4  4  2 138       
PG27 -18107.581615 -10618.860368  17022.436430    116.808967  6  5  6 139       
PG28  11755.500692 -22643.694021   7233.690232    -23.659093  8  7  5 167       
PG29 -23115.153203   5032.488910 -11942.281706     89.703853  8  9  5 144       
PG30 -19060.828893  15073.488065  10264.721520    210.268959  7  8  7 156       
PG31   6510.321064  25061.319874   5738.732577    -55.508833  3  5  4 154       
PG32  17504.528592   1531.388858  20184.591706    117.803144  5  5  5 149       
EOF
